[{"OBJECT_NAME":"STARLINK-35067","OBJECT_ID":"2025-200H","EPOCH":"2026-02-14T04:48:49.958208","MEAN_MOTION":15.05664119,"ECCENTRICITY":0.00019041,"INCLINATION":97.6055,"RA_OF_ASC_NODE":116.6002,"ARG_OF_PERICENTER":94.2465,"MEAN_ANOMALY":265.8979,"EPHEMERIS_TYPE":0,"CLASSIFICATION_TYPE":"U","NORAD_CAT_ID":65527,"ELEMENT_SET_NO":999,"REV_AT_EPOCH":2559,"BSTAR":0.0010960556,"MEAN_MOTION_DOT":0.00015796,"MEAN_MOTION_DDOT":0},{"OBJECT_NAME":"STARLINK-35063","OBJECT_ID":"2025-200J","EPOCH":"2026-02-14T03:37:04.111392","MEAN_MOTION":15.05645164,"ECCENTRICITY":6.931e-5,"INCLINATION":97.6037,"RA_OF_ASC_NODE":116.6691,"ARG_OF_PERICENTER":98.567,"MEAN_ANOMALY":261.5636,"EPHEMERIS_TYPE":0,"CLASSIFICATION_TYPE":"U","NORAD_CAT_ID":65528,"ELEMENT_SET_NO":999,"REV_AT_EPOCH":2559,"BSTAR":0.00071627722,"MEAN_MOTION_DOT":0.00010288,"MEAN_MOTION_DDOT":0},{"OBJECT_NAME":"STARLINK-35077","OBJECT_ID":"2025-200K","EPOCH":"2026-02-14T04:40:49.484352","MEAN_MOTION":15.05655051,"ECCENTRICITY":0.00011693,"INCLINATION":97.6055,"RA_OF_ASC_NODE":116.6083,"ARG_OF_PERICENTER":102.1496,"MEAN_ANOMALY":257.9862,"EPHEMERIS_TYPE":0,"CLASSIFICATION_TYPE":"U","NORAD_CAT_ID":65529,"ELEMENT_SET_NO":999,"REV_AT_EPOCH":2559,"BSTAR":0.00039814053,"MEAN_MOTION_DOT":5.689e-5,"MEAN_MOTION_DDOT":0},{"OBJECT_NAME":"STARLINK-35152","OBJECT_ID":"2025-200L","EPOCH":"2026-02-14T04:12:54.483840","MEAN_MOTION":15.05631306,"ECCENTRICITY":0.00015691,"INCLINATION":97.6031,"RA_OF_ASC_NODE":116.6341,"ARG_OF_PERICENTER":93.5282,"MEAN_ANOMALY":266.6124,"EPHEMERIS_TYPE":0,"CLASSIFICATION_TYPE":"U","NORAD_CAT_ID":65530,"ELEMENT_SET_NO":999,"REV_AT_EPOCH":2559,"BSTAR":1.3632056e-5,"MEAN_MOTION_DOT":1.36e-6,"MEAN_MOTION_DDOT":0},{"OBJECT_NAME":"STARLINK-35064","OBJECT_ID":"2025-200M","EPOCH":"2026-02-14T04:28:51.944448","MEAN_MOTION":15.05658043,"ECCENTRICITY":0.00015571,"INCLINATION":97.6042,"RA_OF_ASC_NODE":116.6196,"ARG_OF_PERICENTER":95.2424,"MEAN_ANOMALY":264.8981,"EPHEMERIS_TYPE":0,"CLASSIFICATION_TYPE":"U","NORAD_CAT_ID":65531,"ELEMENT_SET_NO":999,"REV_AT_EPOCH":2559,"BSTAR":0.00050906159,"MEAN_MOTION_DOT":7.294e-5,"MEAN_MOTION_DDOT":0},{"OBJECT_NAME":"STARLINK-35170","OBJECT_ID":"2025-200N","EPOCH":"2026-02-14T03:48:59.712480","MEAN_MOTION":15.05666697,"ECCENTRICITY":0.00012271,"INCLINATION":97.6023,"RA_OF_ASC_NODE":116.6575,"ARG_OF_PERICENTER":102.0417,"MEAN_ANOMALY":258.0948,"EPHEMERIS_TYPE":0,"CLASSIFICATION_TYPE":"U","NORAD_CAT_ID":65532,"ELEMENT_SET_NO":999,"REV_AT_EPOCH":2559,"BSTAR":0.00063903744,"MEAN_MOTION_DOT":9.176e-5,"MEAN_MOTION_DDOT":0},{"OBJECT_NAME":"STARLINK-35172","OBJECT_ID":"2025-200P","EPOCH":"2026-02-14T03:17:06.638496","MEAN_MOTION":15.05652082,"ECCENTRICITY":0.00020621,"INCLINATION":97.6051,"RA_OF_ASC_NODE":116.531,"ARG_OF_PERICENTER":94.23,"MEAN_ANOMALY":265.9163,"EPHEMERIS_TYPE":0,"CLASSIFICATION_TYPE":"U","NORAD_CAT_ID":65533,"ELEMENT_SET_NO":999,"REV_AT_EPOCH":2558,"BSTAR":0.0010072225,"MEAN_MOTION_DOT":0.00014503,"MEAN_MOTION_DDOT":0},{"OBJECT_NAME":"STARLINK-35125","OBJECT_ID":"2025-200Q","EPOCH":"2026-02-14T03:29:03.302304","MEAN_MOTION":15.05644321,"ECCENTRICITY":0.00011796,"INCLINATION":97.6043,"RA_OF_ASC_NODE":116.5213,"ARG_OF_PERICENTER":72.7341,"MEAN_ANOMALY":287.4014,"EPHEMERIS_TYPE":0,"CLASSIFICATION_TYPE":"U","NORAD_CAT_ID":65534,"ELEMENT_SET_NO":999,"REV_AT_EPOCH":2558,"BSTAR":0.00046959182,"MEAN_MOTION_DOT":6.72e-5,"MEAN_MOTION_DDOT":0},{"OBJECT_NAME":"STARLINK-35133","OBJECT_ID":"2025-200R","EPOCH":"2026-02-14T03:56:58.148160","MEAN_MOTION":15.05657732,"ECCENTRICITY":7.034e-5,"INCLINATION":97.6024,"RA_OF_ASC_NODE":116.6496,"ARG_OF_PERICENTER":104.1656,"MEAN_ANOMALY":255.9649,"EPHEMERIS_TYPE":0,"CLASSIFICATION_TYPE":"U","NORAD_CAT_ID":65535,"ELEMENT_SET_NO":999,"REV_AT_EPOCH":2559,"BSTAR":0.00032380805,"MEAN_MOTION_DOT":4.615e-5,"MEAN_MOTION_DDOT":0},{"OBJECT_NAME":"STARLINK-35044","OBJECT_ID":"2025-200S","EPOCH":"2026-02-14T04:24:52.745184","MEAN_MOTION":15.05661837,"ECCENTRICITY":0.00017424,"INCLINATION":97.6043,"RA_OF_ASC_NODE":116.6231,"ARG_OF_PERICENTER":93.6968,"MEAN_ANOMALY":266.4458,"EPHEMERIS_TYPE":0,"CLASSIFICATION_TYPE":"U","NORAD_CAT_ID":65536,"ELEMENT_SET_NO":999,"REV_AT_EPOCH":2559,"BSTAR":0.00018826073,"MEAN_MOTION_DOT":2.658e-5,"MEAN_MOTION_DDOT":0},{"OBJECT_NAME":"STARLINK-35136","OBJECT_ID":"2025-200T","EPOCH":"2026-02-14T04:44:48.783840","MEAN_MOTION":15.0565697,"ECCENTRICITY":0.00016109,"INCLINATION":97.6046,"RA_OF_ASC_NODE":116.604,"ARG_OF_PERICENTER":82.2047,"MEAN_ANOMALY":277.9363,"EPHEMERIS_TYPE":0,"CLASSIFICATION_TYPE":"U","NORAD_CAT_ID":65537,"ELEMENT_SET_NO":999,"REV_AT_EPOCH":2550,"BSTAR":0.00046941727,"MEAN_MOTION_DOT":6.72e-5,"MEAN_MOTION_DDOT":0},{"OBJECT_NAME":"STARLINK-35144","OBJECT_ID":"2025-200U","EPOCH":"2026-02-14T04:36:50.332608","MEAN_MOTION":15.05651891,"ECCENTRICITY":0.00011908,"INCLINATION":97.6057,"RA_OF_ASC_NODE":116.612,"ARG_OF_PERICENTER":112.5359,"MEAN_ANOMALY":247.5993,"EPHEMERIS_TYPE":0,"CLASSIFICATION_TYPE":"U","NORAD_CAT_ID":65538,"ELEMENT_SET_NO":999,"REV_AT_EPOCH":2559,"BSTAR":0.00026030291,"MEAN_MOTION_DOT":3.697e-5,"MEAN_MOTION_DDOT":0},{"OBJECT_NAME":"STARLINK-35110","OBJECT_ID":"2025-200V","EPOCH":"2026-02-14T03:45:00.376704","MEAN_MOTION":15.05656531,"ECCENTRICITY":4.482e-5,"INCLINATION":97.6026,"RA_OF_ASC_NODE":116.6616,"ARG_OF_PERICENTER":196.3478,"MEAN_ANOMALY":163.7735,"EPHEMERIS_TYPE":0,"CLASSIFICATION_TYPE":"U","NORAD_CAT_ID":65539,"ELEMENT_SET_NO":999,"REV_AT_EPOCH":2559,"BSTAR":0.00034326047,"MEAN_MOTION_DOT":4.896e-5,"MEAN_MOTION_DDOT":0},{"OBJECT_NAME":"STARLINK-35052","OBJECT_ID":"2025-200W","EPOCH":"2026-02-14T07:20:20.571360","MEAN_MOTION":15.05654727,"ECCENTRICITY":0.00011948,"INCLINATION":97.6025,"RA_OF_ASC_NODE":116.7691,"ARG_OF_PERICENTER":86.7439,"MEAN_ANOMALY":273.3925,"EPHEMERIS_TYPE":0,"CLASSIFICATION_TYPE":"U","NORAD_CAT_ID":65540,"ELEMENT_SET_NO":999,"REV_AT_EPOCH":2553,"BSTAR":0.00052326807,"MEAN_MOTION_DOT":7.498e-5,"MEAN_MOTION_DDOT":0},{"OBJECT_NAME":"STARLINK-35087","OBJECT_ID":"2025-200X","EPOCH":"2026-02-14T04:16:54.230016","MEAN_MOTION":15.05658501,"ECCENTRICITY":0.00012113,"INCLINATION":97.6033,"RA_OF_ASC_NODE":116.6308,"ARG_OF_PERICENTER":101.6289,"MEAN_ANOMALY":258.5074,"EPHEMERIS_TYPE":0,"CLASSIFICATION_TYPE":"U","NORAD_CAT_ID":65541,"ELEMENT_SET_NO":999,"REV_AT_EPOCH":2559,"BSTAR":0.00043800411,"MEAN_MOTION_DOT":6.266e-5,"MEAN_MOTION_DDOT":0},{"OBJECT_NAME":"STARLINK-35100","OBJECT_ID":"2025-200Y","EPOCH":"2026-02-14T03:25:03.753120","MEAN_MOTION":15.05655861,"ECCENTRICITY":9.077e-5,"INCLINATION":97.6042,"RA_OF_ASC_NODE":116.527,"ARG_OF_PERICENTER":38.9378,"MEAN_ANOMALY":321.1914,"EPHEMERIS_TYPE":0,"CLASSIFICATION_TYPE":"U","NORAD_CAT_ID":65542,"ELEMENT_SET_NO":999,"REV_AT_EPOCH":2558,"BSTAR":0.00017152853,"MEAN_MOTION_DOT":2.415e-5,"MEAN_MOTION_DDOT":0}]
