STARLINK-35067          
1 65527U 25200H   26045.20057822  .00015796  00000+0  10961-2 0  9993
2 65527  97.6055 116.6002 0001904  94.2465 265.8979 15.05664119 25594
STARLINK-35063          
1 65528U 25200J   26045.15074203  .00010288  00000+0  71628-3 0  9999
2 65528  97.6037 116.6691 0000693  98.5670 261.5636 15.05645164 25590
STARLINK-35077          
1 65529U 25200K   26045.19501718  .00005689  00000+0  39814-3 0  9990
2 65529  97.6055 116.6083 0001169 102.1496 257.9862 15.05655051 25599
STARLINK-35152          
1 65530U 25200L   26045.17563060  .00000136  00000+0  13632-4 0  9991
2 65530  97.6031 116.6341 0001569  93.5282 266.6124 15.05631306 25597
STARLINK-35064          
1 65531U 25200M   26045.18671232  .00007294  00000+0  50906-3 0  9990
2 65531  97.6042 116.6196 0001557  95.2424 264.8981 15.05658043 25590
STARLINK-35170          
1 65532U 25200N   26045.15902445  .00009176  00000+0  63904-3 0  9994
2 65532  97.6023 116.6575 0001227 102.0417 258.0948 15.05666697 25596
STARLINK-35172          
1 65533U 25200P   26045.13688239  .00014503  00000+0  10072-2 0  9992
2 65533  97.6051 116.5310 0002062  94.2300 265.9163 15.05652082 25583
STARLINK-35125          
1 65534U 25200Q   26045.14517711  .00006720  00000+0  46959-3 0  9996
2 65534  97.6043 116.5213 0001179  72.7341 287.4014 15.05644321 25582
STARLINK-35133          
1 65535U 25200R   26045.16456190  .00004615  00000+0  32381-3 0  9997
2 65535  97.6024 116.6496 0000703 104.1656 255.9649 15.05657732 25592
STARLINK-35044          
1 65536U 25200S   26045.18394381  .00002658  00000+0  18826-3 0  9996
2 65536  97.6043 116.6231 0001742  93.6968 266.4458 15.05661837 25599
STARLINK-35136          
1 65537U 25200T   26045.19778685  .00006720  00000+0  46942-3 0  9995
2 65537  97.6046 116.6040 0001610  82.2047 277.9363 15.05656970 25502
STARLINK-35144          
1 65538U 25200U   26045.19224922  .00003697  00000+0  26030-3 0  9992
2 65538  97.6057 116.6120 0001190 112.5359 247.5993 15.05651891 25598
STARLINK-35110          
1 65539U 25200V   26045.15625436  .00004896  00000+0  34326-3 0  9993
2 65539  97.6026 116.6616 0000448 196.3478 163.7735 15.05656531 25591
STARLINK-35052          
1 65540U 25200W   26045.30579365  .00007498  00000+0  52327-3 0  9993
2 65540  97.6025 116.7691 0001194  86.7439 273.3925 15.05654727 25532
STARLINK-35087          
1 65541U 25200X   26045.17840544  .00006266  00000+0  43800-3 0  9997
2 65541  97.6033 116.6308 0001211 101.6289 258.5074 15.05658501 25596
STARLINK-35100          
1 65542U 25200Y   26045.14240455  .00002415  00000+0  17153-3 0  9994
2 65542  97.6042 116.5270 0000907  38.9378 321.1914 15.05655861 25581
